{
  "type": "FeatureCollection",
  "features": [
    {
      "type": "Feature",
      "geometry": { "type": "Point", "coordinates": [-71.102691, 42.343289] },
      "properties": {
        "name": "Paula Sharaga",
        "died": "2019-02-15",
        "marker-symbol": "bicycle",
        "marker-color": "#333",
        "marker-size": "large"
      }
    },
    {
      "type": "Feature",
      "geometry": { "type": "Point", "coordinates": [-71.107052, 42.381476] },
      "properties": {
        "name": "Jean Leonard",
        "died": "2016-08-28",
        "marker-symbol": "bicycle",
        "marker-color": "#333",
        "marker-size": "large"
      }
    },
    {
      "type": "Feature",
      "geometry": { "type": "Point", "coordinates": [-71.101619, 42.373882] },
      "properties": {
        "name": "Amanda Phillips",
        "died": "2016-06-23",
        "marker-symbol": "bicycle",
        "marker-color": "#333",
        "marker-size": "large"
      }
    },
    {
      "type": "Feature",
      "geometry": { "type": "Point", "coordinates": [-71.089508, 42.350852] },
      "properties": {
        "name": "Anita Kurmann",
        "died": "2015-08-07",
        "marker-symbol": "bicycle",
        "marker-color": "#333",
        "marker-size": "large"
      }
    },
    {
      "type": "Feature",
      "geometry": { "type": "Point", "coordinates": [-71.075336, 42.383385] },
      "properties": {
        "name": "Owen McGrory",
        "died": "2014-04-03",
        "marker-symbol": "bicycle",
        "marker-color": "#333",
        "marker-size": "large"
      }
    },
    {
      "type": "Feature",
      "geometry": { "type": "Point", "coordinates": [-71.090718, 42.339766] },
      "properties": {
        "name": "Gordon Riker",
        "died": "2007-04-04",
        "Notes": "Bike was removed by Northeastern University Facilities in late 2007",
        "marker-symbol": "bicycle",
        "marker-color": "#BCB8B1",
        "marker-size": "large"
      }
    }
  ]
}
